E-KAGAKU-1              
1 65943U 98067XQ  26074.58641328  .00223201  00000+0  99860-3 0  9997
2 65943  51.6233  26.7331 0005584 115.3994 244.7588 15.83003357 24431
HRC MONOBLOCK CAMERA    
1 66052U 98067XR  26074.58422806  .00050012  00000+0  54477-3 0  9990
2 66052  51.6283  35.7678 0003848 118.5533 241.5849 15.62895855 23317
HTV-X1                  
1 66174U 25241A   26073.34423291  .00013614  00000+0  58534-3 0  9996
2 66174  51.6357  50.7100 0005742 187.4106 172.6788 15.22910308 21666
SZ-21 MODULE            
1 66515U 25246C   26074.61177792  .00034609  00000+0  29227-3 0  9997
2 66515  41.4740 166.8918 0000819 310.4718  49.6052 15.69044572 19005
SHENZHOU-22             
1 66645U 25272A   26073.00269975  .00029757  00000+0  34787-3 0  9992
2 66645  41.4663 181.9138 0006689 299.3968  60.6202 15.60904690267527
SOYUZ-MS 28             
1 66664U 25275A   26074.25700838  .00009576  00000+0  18620-3 0  9997
2 66664  51.6330  44.8327 0006349 192.8038 167.2790 15.48289699554523
DUPLEX                  
1 66906U 98067XS  26074.62160253  .00028497  00000+0  39788-3 0  9998
2 66906  51.6294  39.7700 0002794 138.5108 221.6097 15.56634012 16052
ISS OBJECT XT           
1 66907U 98067XT  26074.05627168  .00202137  00000+0  15333-2 0  9993
2 66907  51.6247  38.2251 0004688 115.4311 244.7173 15.71174897 16025
ISS OBJECT XU           
1 66908U 98067XU  26074.05401917  .00202702  00000+0  15285-2 0  9990
2 66908  51.6248  38.2054 0004987 118.2627 241.8875 15.71313389 16029
SILVERSAT               
1 66909U 98067XV  26074.17151702  .00265810  00000+0  17149-2 0  9998
2 66909  51.6239  36.7379 0005444 117.7755 242.3797 15.74772085 16055
ISS OBJECT XW           
1 66910U 98067XW  26074.18095813  .00173075  00000+0  13629-2 0  9991
2 66910  51.6239  37.5499 0005353 120.8061 239.3464 15.70370803 16047
ISS OBJECT XX           
1 66911U 98067XX  26074.59948776  .00286223  00000+0  15334-2 0  9997
2 66911  51.6208  33.5717 0007009 124.4751 235.6913 15.78906967 16120
